FENGYUN 1C DEB          
1 37920U 99025ENV 17345.04675972  .00000743  00000-0  44465-3 0  9996
2 37920  99.0342  19.7622 0068294 216.1096 176.9948 14.09085941383448
